{"fetched_at":"2026-03-30T06:02:59Z","count":15439,"tles":[{"name":"STARLINK-11165 [DTC]","line1":"1 60063U 24113E   26087.73408917  .00000499  00000+0  89829-5 0  9990","line2":"2 60063  53.1591  97.2328 0001357  91.5805 268.5368 15.69699438102557","category":"Starlink"}]}